{
    "links": {
        "self": "http://www.neowsapp.com/rest/v1/neo/3780769?api_key=iIulBulltgU6a56xZRHN4H3l9WmuAYTsLGpBGhQ2"
    },
    "id": "3780769",
    "neo_reference_id": "3780769",
    "name": "(2017 QE2)",
    "designation": "2017 QE2",
    "nasa_jpl_url": "http://ssd.jpl.nasa.gov/sbdb.cgi?sstr=3780769",
    "absolute_magnitude_h": 24.9,
    "estimated_diameter": {
        "kilometers": {
            "estimated_diameter_min": 0.0278326768,
            "estimated_diameter_max": 0.0622357573
        },
        "meters": {
            "estimated_diameter_min": 27.8326768072,
            "estimated_diameter_max": 62.2357573367
        },
        "miles": {
            "estimated_diameter_min": 0.0172944182,
            "estimated_diameter_max": 0.0386714948
        },
        "feet": {
            "estimated_diameter_min": 91.3145593761,
            "estimated_diameter_max": 204.1855621004
        }
    },
    "is_potentially_hazardous_asteroid": false,
    "close_approach_data": [
        {
            "close_approach_date": "2017-08-14",
            "close_approach_date_full": "2017-Aug-14 00:15",
            "epoch_date_close_approach": 1502669700000,
            "relative_velocity": {
                "kilometers_per_second": "6.212576897",
                "kilometers_per_hour": "22365.2768291788",
                "miles_per_hour": "13896.9132608861"
            },
            "miss_distance": {
                "astronomical": "0.0752167169",
                "lunar": "29.2593028741",
                "kilometers": "11252260.636633003",
                "miles": "6991830.5441133214"
            },
            "orbiting_body": "Earth"
        }
    ],
    "orbital_data": {
        "orbit_id": "6",
        "orbit_determination_date": "2017-09-21 06:20:36",
        "first_observation_date": "2017-08-18",
        "last_observation_date": "2017-09-20",
        "data_arc_in_days": 33,
        "observations_used": 31,
        "orbit_uncertainty": "7",
        "minimum_orbit_intersection": ".071972",
        "jupiter_tisserand_invariant": "3.314",
        "epoch_osculation": "2459000.5",
        "eccentricity": ".5458377476711441",
        "semi_major_axis": "2.388371251433793",
        "inclination": ".5303621777515604",
        "ascending_node_longitude": "4.369961667036023",
        "orbital_period": "1348.190241667159",
        "perihelion_distance": "1.08470806694866",
        "perihelion_argument": "314.4041643554269",
        "aphelion_distance": "3.692034435918926",
        "perihelion_time": "2459326.623720006968",
        "mean_anomaly": "272.9169344399593",
        "mean_motion": ".2670246296656378",
        "equinox": "J2000",
        "orbit_class": {
            "orbit_class_type": "AMO",
            "orbit_class_description": "Near-Earth asteroid orbits similar to that of 1221 Amor",
            "orbit_class_range": "1.017 AU < q (perihelion) < 1.3 AU"
        }
    },
    "is_sentry_object": false
}